{
  "type": "FeatureCollection",
  "features": [
    {
      "type": "Feature",
      "properties": {
        "route_code": "DIRETSO A",
        "route_name": "Diretso Route A (Daraga–Legazpi City Center)"
      },
      "geometry": {
        "type": "LineString",
        "coordinates": [
          [123.7286, 13.1566],
          [123.7310, 13.1610],
          [123.7335, 13.1655],
          [123.7360, 13.1700],
          [123.7385, 13.1745],
          [123.7410, 13.1790],
          [123.7435, 13.1835],
          [123.7460, 13.1880],
          [123.7490, 13.1920],
          [123.7520, 13.1960],
          [123.7550, 13.1990],
          [123.7580, 13.2010],
          [123.7610, 13.2030]
        ]
      }
    },
    {
      "type": "Feature",
      "properties": {
        "route_code": "DIRETSO B",
        "route_name": "Diretso Route B (Daraga–Legazpi alternate)"
      },
      "geometry": {
        "type": "LineString",
        "coordinates": [
          [123.7295, 13.1560],
          [123.7315, 13.1600],
          [123.7338, 13.1645],
          [123.7362, 13.1690],
          [123.7387, 13.1735],
          [123.7412, 13.1780],
          [123.7438, 13.1825],
          [123.7465, 13.1870],
          [123.7495, 13.1910],
          [123.7525, 13.1950],
          [123.7555, 13.1980],
          [123.7585, 13.2005],
          [123.7615, 13.2025]
        ]
      }
    },
    {
      "type": "Feature",
      "properties": {
        "route_code": "RAWIS A",
        "route_name": "Rawis Route A (Rawis–SM–Daraga)"
      },
      "geometry": {
        "type": "LineString",
        "coordinates": [
          [123.7580, 13.1300],
          [123.7560, 13.1370],
          [123.7540, 13.1440],
          [123.7520, 13.1510],
          [123.7490, 13.1580],
          [123.7460, 13.1640],
          [123.7430, 13.1700],
          [123.7400, 13.1760],
          [123.7380, 13.1820],
          [123.7360, 13.1880],
          [123.7340, 13.1940],
          [123.7340, 13.1990],
          [123.7350, 13.2030]
        ]
      }
    },
    {
      "type": "Feature",
      "properties": {
        "route_code": "RAWIS B",
        "route_name": "Rawis Route B (Rawis–SM–Daraga alternate)"
      },
      "geometry": {
        "type": "LineString",
        "coordinates": [
          [123.7590, 13.1310],
          [123.7570, 13.1375],
          [123.7550, 13.1445],
          [123.7525, 13.1515],
          [123.7495, 13.1585],
          [123.7465, 13.1645],
          [123.7435, 13.1705],
          [123.7405, 13.1765],
          [123.7385, 13.1825],
          [123.7365, 13.1880],
          [123.7345, 13.1940],
          [123.7345, 13.1990],
          [123.7355, 13.2030]
        ]
      }
    },
    {
      "type": "Feature",
      "properties": {
        "route_code": "ARIMBAY",
        "route_name": "Arimbay Route (Pacific Mall–SM via Tahao)"
      },
      "geometry": {
        "type": "LineString",
        "coordinates": [
          [123.7470, 13.1920],
          [123.7480, 13.1870],
          [123.7500, 13.1820],
          [123.7520, 13.1770],
          [123.7540, 13.1720],
          [123.7555, 13.1670],
          [123.7560, 13.1610],
          [123.7560, 13.1550],
          [123.7550, 13.1490],
          [123.7535, 13.1430]
        ]
      }
    },
    {
      "type": "Feature",
      "properties": {
        "route_code": "LOOP 1",
        "route_name": "Loop Route 1 (Rotunda–Daraga Market)"
      },
      "geometry": {
        "type": "LineString",
        "coordinates": [
          [123.7470, 13.1990],
          [123.7450, 13.1950],
          [123.7425, 13.1900],
          [123.7395, 13.1845],
          [123.7365, 13.1795],
          [123.7335, 13.1750],
          [123.7305, 13.1700],
          [123.7286, 13.1566]
        ]
      }
    },
    {
      "type": "Feature",
      "properties": {
        "route_code": "LOOP 2",
        "route_name": "Loop Route 2 (Rotunda–Daraga Market alternate)"
      },
      "geometry": {
        "type": "LineString",
        "coordinates": [
          [123.7475, 13.1995],
          [123.7455, 13.1955],
          [123.7430, 13.1905],
          [123.7400, 13.1850],
          [123.7370, 13.1800],
          [123.7340, 13.1755],
          [123.7310, 13.1705],
          [123.7295, 13.1560]
        ]
      }
    },
    {
      "type": "Feature",
      "properties": {
        "route_code": "EXTERNAL",
        "route_name": "External Route (Long-distance)"
      },
      "geometry": {
        "type": "LineString",
        "coordinates": [
          [123.7200, 13.1400],
          [123.7250, 13.1470],
          [123.7286, 13.1566],
          [123.7320, 13.1650],
          [123.7360, 13.1730],
          [123.7400, 13.1810],
          [123.7440, 13.1890],
          [123.7470, 13.1960],
          [123.7500, 13.2020],
          [123.7540, 13.2060],
          [123.7580, 13.2090],
          [123.7620, 13.2100],
          [123.7680, 13.2090],
          [123.7740, 13.2060],
          [123.7780, 13.2020]
        ]
      }
    }
  ]
}